QIANFAN-65              
1 62795U 25016L   25318.21578455  .00000177  00000+0  25445-3 0  9996
2 62795  88.9738 106.0072 0015367  69.1967 291.0828 13.50976354 43392
QIANFAN-66              
1 62796U 25016M   25318.24459755  .00000157  00000+0  22381-3 0  9995
2 62796  88.9757 105.9688 0016405  64.8012 295.4838 13.50980348 43445
QIANFAN-67              
1 62797U 25016N   25318.24875595  .00000158  00000+0  22586-3 0  9998
2 62797  88.9748 105.9968 0016477  71.0975 289.1961 13.50973210 43418
QIANFAN-68              
1 62798U 25016P   25318.31456525  .00000167  00000+0  24021-3 0  9991
2 62798  88.9751 106.0341 0016513  69.3121 290.9798 13.50975600 43406
QIANFAN-69              
1 62799U 25016Q   25318.25705335  .00000163  00000+0  23367-3 0  9999
2 62799  88.9730 105.9155 0017286  70.3099 289.9916 13.50972776 43433
QIANFAN-70              
1 62800U 25016R   25318.27330486  .00000175  00000+0  25221-3 0  9999
2 62800  88.9751 106.0463 0016723  61.4994 298.7839 13.50976083 43395
QIANFAN-71              
1 62801U 25016S   25318.26927681  .00000169  00000+0  24234-3 0  9994
2 62801  88.9745 106.0280 0017246  73.5383 286.7662 13.50976583 43399
QIANFAN-72              
1 62802U 25016T   25318.21168821  .00000163  00000+0  23343-3 0  9997
2 62802  88.9735 106.0501 0020594  79.9420 280.4053 13.50976395 43371
